[{"OBJECT_NAME":"NANOZOND 1 (RS49S)","OBJECT_ID":"2023-091AA","EPOCH":"2026-03-09T01:06:23.015808","MEAN_MOTION":15.74384803,"ECCENTRICITY":9.992e-5,"INCLINATION":97.5065,"RA_OF_ASC_NODE":148.2398,"ARG_OF_PERICENTER":320.8834,"MEAN_ANOMALY":39.2358,"EPHEMERIS_TYPE":0,"CLASSIFICATION_TYPE":"U","NORAD_CAT_ID":57190,"ELEMENT_SET_NO":999,"REV_AT_EPOCH":15017,"BSTAR":0.0017343613,"MEAN_MOTION_DOT":0.00257461,"MEAN_MOTION_DDOT":0},{"OBJECT_NAME":"STARLINK-36813","OBJECT_ID":"2026-035P","EPOCH":"2026-03-09T22:00:01.999584","MEAN_MOTION":15.86759258,"ECCENTRICITY":0.0001378,"INCLINATION":97.2666,"RA_OF_ASC_NODE":1.2861,"ARG_OF_PERICENTER":84.7497,"MEAN_ANOMALY":39.4104,"EPHEMERIS_TYPE":0,"CLASSIFICATION_TYPE":"U","NORAD_CAT_ID":67892,"ELEMENT_SET_NO":999,"REV_AT_EPOCH":379,"BSTAR":-0.0063268094,"MEAN_MOTION_DOT":-0.01402208,"MEAN_MOTION_DDOT":0}]
